STARLINK-35155          
1 65935U 25225AB  25299.71908125  .00168297  00000+0  11288-2 0  9998
2 65935  53.1600  71.7349 0001069  68.2182 291.8951 15.74226946  2956
STARLINK-35161          
1 65936U 25225AC  25299.71840483  .00212998  00000+0  14191-2 0  9995
2 65936  53.1597  71.7308 0001061  59.4338 300.6787 15.74238850  2957
STARLINK-35473          
1 65937U 25225AD  25299.71806774  .00160285  00000+0  10764-2 0  9994
2 65937  53.1596  71.7292 0001146  78.5428 281.5721 15.74223401  2956
2025-226A               
1 65938U 25226A   25299.83084332  .00010923  00000+0  64289-3 0  9992
2 65938  97.6664  14.0067 0014497 227.2859 132.7151 15.11724654  2388
2025-226B               
1 65939U 25226B   25299.84679802  .00006023  00000+0  37674-3 0  9990
2 65939  97.6621  13.9781 0020494 230.5182 129.4235 15.09628283  2376
2025-226C               
1 65940U 25226C   25299.83200330  .00010708  00000+0  63233-3 0  9992
2 65940  97.6572  13.9886 0014444 225.1268 134.8790 15.11612635  2375
YOTSUBA-KULOVER         
1 65941U 98067XN  25299.24441333  .00050829  00000+0  81754-3 0  9997
2 65941  51.6333  17.3832 0002410 309.1858  50.8918 15.52475324  2464
BOTAN                   
1 65942U 98067XP  25299.24137569  .00066958  00000+0  10490-2 0  9999
2 65942  51.6336  17.3634 0004234 332.8150  27.2618 15.53081115  2469
E-KAGAKU-1              
1 65943U 98067XQ  25299.24402476  .00049616  00000+0  79771-3 0  9992
2 65943  51.6335  17.3807 0004121 323.1871  36.8835 15.52492087  2469
2025-226D               
1 65944U 25226D   25290.94606692 -.00000071  00000+0  00000+0 0  9992
2 65944  97.6632   5.1263 0019022 287.2735  72.6416 15.16526485  1020
SHIYAN-31               
1 65945U 25227A   25299.75700288  .00009762  00000+0  44874-3 0  9994
2 65945  80.0034  84.2762 0011320 223.8724 136.1604 15.20217879  2038
CZ-2D R/B               
1 65946U 25227B   25299.76163622  .00012063  00000+0  44745-3 0  9996
2 65946  80.1541  84.5297 0021501 351.5304   8.5561 15.27279796  2042
KUIPER-00101            
1 65947U 25228A   25299.71307620  .00040975  00000+0  12084-2 0  9994
2 65947  51.8800 247.1086 0006335 179.2406 180.8590 15.34585424  3194
KUIPER-00113            
1 65948U 25228B   25299.71096231  .00044816  00000+0  13095-2 0  9999
2 65948  51.8806 247.0991 0006348 177.1860 182.9163 15.34836727  3194
KUIPER-00117            
1 65949U 25228C   25299.71130147  .00031368  00000+0  92293-3 0  9991
2 65949  51.8807 247.1008 0006044 176.4033 183.6997 15.34789635  3191
KUIPER-00121            
1 65950U 25228D   25299.71634029  .00033721  00000+0  10096-2 0  9996
2 65950  51.8815 247.1370 0005577 196.2013 163.8795 15.34206823  3191
KUIPER-00122            
1 65951U 25228E   25299.71728917  .00040768  00000+0  12222-2 0  9999
2 65951  51.8806 247.1372 0006366 200.5493 159.5237 15.34069576  3197
KUIPER-00123            
1 65952U 25228F   25299.71642410  .00033248  00000+0  99792-3 0  9996
2 65952  51.8800 247.1304 0005420 190.8942 169.1927 15.34134900  3194
KUIPER-00124            
1 65953U 25228G   25299.71769574  .00032535  00000+0  98025-3 0  9994
2 65953  51.8811 247.1434 0005590 205.6256 154.4453 15.34023810  3190
KUIPER-00125            
1 65954U 25228H   25299.71425436  .00031876  00000+0  94830-3 0  9998
2 65954  51.8801 247.1159 0005675 185.4142 174.6783 15.34435093  3197
KUIPER-00126            
1 65955U 25228J   25299.71685714  .00042755  00000+0  12768-2 0  9993
2 65955  51.8808 247.1366 0006114 200.8913 159.1823 15.34172633  3193
KUIPER-00127            
1 65956U 25228K   25299.71157910  .00033647  00000+0  99013-3 0  9995
2 65956  51.8808 247.1029 0006001 178.6578 181.4425 15.34750026  3198
KUIPER-00128            
1 65957U 25228L   25299.71341729  .00032768  00000+0  97122-3 0  9991
2 65957  51.8810 247.1164 0005902 181.2116 178.8856 15.34536806  3195
KUIPER-00129            
1 65958U 25228M   25299.71303772  .00035477  00000+0  10498-2 0  9998
2 65958  51.8807 247.1138 0006151 176.8740 183.2285 15.34548565  3194
KUIPER-00130            
1 65959U 25228N   25299.71514323  .00032482  00000+0  96835-3 0  9998
2 65959  51.8800 247.1225 0005299 192.0495 168.0365 15.34361076  3194
KUIPER-00134            
1 65960U 25228P   25299.71596655  .00029203  00000+0  87512-3 0  9997
2 65960  51.8801 247.1274 0005150 197.8743 162.2062 15.34252217  3192
KUIPER-00135            
1 65961U 25228Q   25299.71555891  .00030579  00000+0  91584-3 0  9997
2 65961  51.8814 247.1314 0005105 184.1675 175.9269 15.34246559  3197
KUIPER-00136            
1 65962U 25228R   25299.71216082  .00026130  00000+0  77420-3 0  9995
2 65962  51.8808 247.1088 0005751 180.0291 180.0695 15.34668700  3191
KUIPER-00137            
1 65963U 25228S   25299.71520922  .00030729  00000+0  91792-3 0  9994
2 65963  51.8813 247.1298 0005269 191.8157 168.2706 15.34326181  3191
KUIPER-00138            
1 65964U 25228T   25299.71659758  .00047521  00000+0  14183-2 0  9991
2 65964  51.8800 247.1327 0006022 203.3977 156.6735 15.34143336  3190
KUIPER-00140            
1 65965U 25228U   25299.71728080  .00044627  00000+0  13350-2 0  9996
2 65965  51.8810 247.1412 0005828 202.9125 157.1601 15.34099108  3195
KUIPER-00141            
1 65966U 25228V   25299.71372190  .00036329  00000+0  10760-2 0  9996
2 65966  51.8801 247.1130 0005782 183.4218 176.6729 15.34510852  3199
KUIPER-00146            
1 65967U 25228W   25299.71400898  .00039202  00000+0  11612-2 0  9994
2 65967  51.8808 247.1211 0006021 183.2719 176.8228 15.34468047  3192
KUIPER-00149            
1 65968U 25228X   25299.71246611  .00032437  00000+0  95845-3 0  9990
2 65968  51.8803 247.1062 0005767 181.0919 179.0055 15.34640433  3190
KUIPER-00154            
1 65969U 25228Y   25299.71189117  .00033503  00000+0  98720-3 0  9998
2 65969  51.8806 247.1032 0005855 179.5444 180.5548 15.34710856  3195
KUIPER-00157            
1 65970U 25228Z   25299.71606046  .00040557  00000+0  12088-2 0  9994
2 65970  51.8814 247.1352 0005731 195.8729 164.2077 15.34258892  3194
STRIX-5                 
1 65971U 25229A   25297.29131742  .00007332  00000+0  55984-3 0  9990
2 65971  41.9260 152.9598 0040776 308.0764  51.6386 15.01617556  1471
ELECTRON R/B            
1 65972U 25229B   25299.55279909  .00005478  00000+0  42197-3 0  9991
2 65972  41.9264 140.4735 0040430 322.4918  37.3088 15.01642007  1793
ELECTRON KICK STAGE R/B 
1 65973U 25229C   25299.54626094  .00006530  00000+0  48869-3 0  9994
2 65973  41.9821 140.4957 0041455 322.6340  37.1605 15.02490190  1785
HULIANWANG DIGUI 12A    
1 65995U 25231A   25298.92228948  .00000117  00000+0  16617-3 0  9999
2 65995  50.0013 317.5889 0006545 288.5047  71.5146 14.04903841  1391
HULIANWANG DIGUI 12B    
1 65996U 25231B   25299.70808774  .00000088  00000+0  15058-3 0  9993
2 65996  49.9999 314.4129 0008978 295.9282  64.0697 14.03875846  1503
HULIANWANG DIGUI 12C    
1 65997U 25231C   25298.92121315  .00000115  00000+0  16545-3 0  9999
2 65997  49.9977 317.5788 0007636 292.5953  67.4143 14.04741689  1391
HULIANWANG DIGUI 12D    
1 65998U 25231D   25298.77853280  .00000113  00000+0  16289-3 0  9999
2 65998  50.0005 318.1615 0006578 297.0411  62.9822 14.05303129  1372
HULIANWANG DIGUI 12E    
1 65999U 25231E   25298.99142514  .00000086  00000+0  14526-3 0  9996
2 65999  50.0025 317.2904 0008184 307.0262  52.9894 14.05675308  1400
HULIANWANG DIGUI 12F    
1 66000U 25231F   25298.99035399  .00000098  00000+0  15228-3 0  9995
2 66000  50.0066 317.2912 0005664 302.6769  57.3590 14.05826000  1400
HULIANWANG DIGUI 12G    
1 66001U 25231G   25298.98965537  .00000111  00000+0  15983-3 0  9995
2 66001  50.0034 317.2818 0006933 314.4365  45.5972 14.05927778  1401
HULIANWANG DIGUI 12H    
1 66002U 25231H   25299.77183269  .00000461  00000+0  37780-3 0  9995
2 66002  50.0079 314.0928 0007408 309.0440  50.9805 14.05117167  1510
HULIANWANG DIGUI 12J    
1 66003U 25231J   25299.69897139  .00000122  00000+0  16622-3 0  9991
2 66003  50.0045 314.3718 0005654 308.0873  51.9522 14.06123700  1501
CZ-8A R/B               
1 66004U 25231K   25299.73182412 -.00000055  00000+0  39560-4 0  9991
2 66004  50.0039 312.4788 0116703 121.6321 239.6043 14.30030828  1537
STARLINK-34849          
1 66005U 25232A   25299.25001157 -.01358544  00000+0 -64088-2 0  9998
2 66005  53.1562  13.5830 0001036  82.4760 124.8351 15.85179470  1910
STARLINK-35336          
1 66006U 25232B   25299.83334491 -.01505457  00000+0 -76587-2 0  9997
2 66006  53.1549  10.6395 0000943  65.6884 233.3471 15.83447413  2021
STARLINK-35196          
1 66007U 25232C   25299.83334491 -.01522249  00000+0 -77517-2 0  9990
2 66007  53.1550  10.6354 0000958  70.1586 230.9960 15.83458260  2023
STARLINK-35236          
1 66008U 25232D   25299.83334491 -.01537120  00000+0 -78415-2 0  9993
2 66008  53.1545  10.6296 0000900  69.3576 234.2113 15.83449310  2022
STARLINK-35276          
1 66009U 25232E   25299.83334491 -.01552928  00000+0 -79431-2 0  9996
2 66009  53.1545  10.6246 0000718  75.5858 230.5868 15.83425745  2018
STARLINK-35297          
1 66010U 25232F   25299.83334491 -.01554023  00000+0 -79523-2 0  9998
2 66010  53.1549  10.6199 0000740  66.4297 241.9763 15.83418284  2023
STARLINK-35256          
1 66011U 25232G   25299.83334491 -.01596405  00000+0 -82048-2 0  9995
2 66011  53.1548  10.6014 0000964  65.3827 252.0257 15.83405293  2021
STARLINK-35293          
1 66012U 25232H   25299.83334491 -.01568129  00000+0 -80380-2 0  9995
2 66012  53.1546  10.6149 0000740  72.8642 237.9091 15.83409696  2028
STARLINK-35307          
1 66013U 25232J   25299.83334491 -.01576340  00000+0 -80889-2 0  9994
2 66013  53.1548  10.6103 0000856  65.1831 247.8782 15.83401233  1951
STARLINK-35395          
1 66014U 25232K   25299.83334491 -.01572421  00000+0 -80643-2 0  9999
2 66014  53.1545  10.6059 0000764  69.0315 246.0312 15.83406505  2012
